[{"OBJECT_NAME":"STARLINK-31524","OBJECT_ID":"2024-071Y","EPOCH":"2026-03-09T10:16:58.239840","MEAN_MOTION":15.27565301,"ECCENTRICITY":0.00012668,"INCLINATION":43.0057,"RA_OF_ASC_NODE":334.2763,"ARG_OF_PERICENTER":272.5503,"MEAN_ANOMALY":87.5204,"EPHEMERIS_TYPE":0,"CLASSIFICATION_TYPE":"U","NORAD_CAT_ID":59506,"ELEMENT_SET_NO":999,"REV_AT_EPOCH":10824,"BSTAR":-5.2636536e-5,"MEAN_MOTION_DOT":-1.71e-5,"MEAN_MOTION_DDOT":0},{"OBJECT_NAME":"FLOCK 4G-2","OBJECT_ID":"2025-009BE","EPOCH":"2026-03-09T15:53:23.273952","MEAN_MOTION":15.2767526,"ECCENTRICITY":0.00031811,"INCLINATION":97.4044,"RA_OF_ASC_NODE":151.2221,"ARG_OF_PERICENTER":329.2677,"MEAN_ANOMALY":30.8376,"EPHEMERIS_TYPE":0,"CLASSIFICATION_TYPE":"U","NORAD_CAT_ID":62661,"ELEMENT_SET_NO":999,"REV_AT_EPOCH":12132,"BSTAR":0.00051068481,"MEAN_MOTION_DOT":0.00013752,"MEAN_MOTION_DDOT":0}]
